[
  {
    "COMMENT": "GENERATED VIA SPACETRACK.ORG API",
    "ORIGINATOR": "18 SPCS",
    "NORAD_CAT_ID": "54754",
    "OBJECT_NAME": "SWOT",
    "OBJECT_TYPE": "PAYLOAD",
    "CLASSIFICATION_TYPE": "U",
    "INTLDES": "22173A",
    "EPOCH": "2023-08-03 18:06:32",
    "EPOCH_MICROSECONDS": "562720",
    "MEAN_MOTION": "14.00169173",
    "ECCENTRICITY": "0.0000405",
    "INCLINATION": "77.6113",
    "RA_OF_ASC_NODE": "10.5811",
    "ARG_OF_PERICENTER": "123.9511",
    "MEAN_ANOMALY": "236.168",
    "EPHEMERIS_TYPE": "0",
    "ELEMENT_SET_NO": "999",
    "REV_AT_EPOCH": "3242",
    "BSTAR": "0.000089635",
    "MEAN_MOTION_DOT": "0.0000013",
    "MEAN_MOTION_DDOT": "0",
    "FILE": "3970900",
    "TLE_LINE0": "0 SWOT",
    "TLE_LINE1": "1 54754U 22173A   23215.75454355  .00000130  00000-0  89635-4 0  9990",
    "TLE_LINE2": "2 54754  77.6113  10.5811 0000405 123.9511 236.1680 14.00169173 32428",
    "OBJECT_ID": "2022-173A",
    "OBJECT_NUMBER": "54754",
    "SEMIMAJOR_AXIS": "7271.346",
    "PERIOD": "102.845",
    "APOGEE": "893.506",
    "PERIGEE": "892.917",
    "DECAYED": "0"
  },
  {
    "COMMENT": "GENERATED VIA SPACETRACK.ORG API",
    "ORIGINATOR": "18 SPCS",
    "NORAD_CAT_ID": "54754",
    "OBJECT_NAME": "SWOT",
    "OBJECT_TYPE": "PAYLOAD",
    "CLASSIFICATION_TYPE": "U",
    "INTLDES": "22173A",
    "EPOCH": "2023-08-04 18:07:03",
    "EPOCH_MICROSECONDS": "690048",
    "MEAN_MOTION": "14.00169333",
    "ECCENTRICITY": "0.00004",
    "INCLINATION": "77.6114",
    "RA_OF_ASC_NODE": "9.2307",
    "ARG_OF_PERICENTER": "122.9142",
    "MEAN_ANOMALY": "237.2048",
    "EPHEMERIS_TYPE": "0",
    "ELEMENT_SET_NO": "999",
    "REV_AT_EPOCH": "3256",
    "BSTAR": "0.00007955",
    "MEAN_MOTION_DOT": "0.00000115",
    "MEAN_MOTION_DDOT": "0",
    "FILE": "3971716",
    "TLE_LINE0": "0 SWOT",
    "TLE_LINE1": "1 54754U 22173A   23216.75490382  .00000115  00000-0  79550-4 0  9999",
    "TLE_LINE2": "2 54754  77.6114   9.2307 0000400 122.9142 237.2048 14.00169333 32561",
    "OBJECT_ID": "2022-173A",
    "OBJECT_NUMBER": "54754",
    "SEMIMAJOR_AXIS": "7271.346",
    "PERIOD": "102.845",
    "APOGEE": "893.502",
    "PERIGEE": "892.920",
    "DECAYED": "0"
  },
  {
    "COMMENT": "GENERATED VIA SPACETRACK.ORG API",
    "ORIGINATOR": "18 SPCS",
    "NORAD_CAT_ID": "54754",
    "OBJECT_NAME": "SWOT",
    "OBJECT_TYPE": "PAYLOAD",
    "CLASSIFICATION_TYPE": "U",
    "INTLDES": "22173A",
    "EPOCH": "2023-08-05 18:07:34",
    "EPOCH_MICROSECONDS": "796640",
    "MEAN_MOTION": "14.00169552",
    "ECCENTRICITY": "0.0000385",
    "INCLINATION": "77.6115",
    "RA_OF_ASC_NODE": "7.8802",
    "ARG_OF_PERICENTER": "122.3568",
    "MEAN_ANOMALY": "237.7621",
    "EPHEMERIS_TYPE": "0",
    "ELEMENT_SET_NO": "999",
    "REV_AT_EPOCH": "3270",
    "BSTAR": "0.000070627",
    "MEAN_MOTION_DOT": "0.00000102",
    "MEAN_MOTION_DDOT": "0",
    "FILE": "3972573",
    "TLE_LINE0": "0 SWOT",
    "TLE_LINE1": "1 54754U 22173A   23217.75526385  .00000102  00000-0  70627-4 0  9995",
    "TLE_LINE2": "2 54754  77.6115   7.8802 0000385 122.3568 237.7621 14.00169552 32705",
    "OBJECT_ID": "2022-173A",
    "OBJECT_NUMBER": "54754",
    "SEMIMAJOR_AXIS": "7271.345",
    "PERIOD": "102.845",
    "APOGEE": "893.490",
    "PERIGEE": "892.930",
    "DECAYED": "0"
  },
  {
    "COMMENT": "GENERATED VIA SPACETRACK.ORG API",
    "ORIGINATOR": "18 SPCS",
    "NORAD_CAT_ID": "54754",
    "OBJECT_NAME": "SWOT",
    "OBJECT_TYPE": "PAYLOAD",
    "CLASSIFICATION_TYPE": "U",
    "INTLDES": "22173A",
    "EPOCH": "2023-08-06 18:08:05",
    "EPOCH_MICROSECONDS": "887680",
    "MEAN_MOTION": "14.00169708",
    "ECCENTRICITY": "0.0000371",
    "INCLINATION": "77.6116",
    "RA_OF_ASC_NODE": "6.5298",
    "ARG_OF_PERICENTER": "122.0117",
    "MEAN_ANOMALY": "238.1071",
    "EPHEMERIS_TYPE": "0",
    "ELEMENT_SET_NO": "999",
    "REV_AT_EPOCH": "3284",
    "BSTAR": "0.000048934",
    "MEAN_MOTION_DOT": "0.0000007",
    "MEAN_MOTION_DDOT": "0",
    "FILE": "3973531",
    "TLE_LINE0": "0 SWOT",
    "TLE_LINE1": "1 54754U 22173A   23218.75562370  .00000070  00000-0  48934-4 0  9990",
    "TLE_LINE2": "2 54754  77.6116   6.5298 0000371 122.0117 238.1071 14.00169708 32845",
    "OBJECT_ID": "2022-173A",
    "OBJECT_NUMBER": "54754",
    "SEMIMAJOR_AXIS": "7271.345",
    "PERIOD": "102.845",
    "APOGEE": "893.479",
    "PERIGEE": "892.940",
    "DECAYED": "0"
  },
  {
    "COMMENT": "GENERATED VIA SPACETRACK.ORG API",
    "ORIGINATOR": "18 SPCS",
    "NORAD_CAT_ID": "54754",
    "OBJECT_NAME": "SWOT",
    "OBJECT_TYPE": "PAYLOAD",
    "CLASSIFICATION_TYPE": "U",
    "INTLDES": "22173A",
    "EPOCH": "2023-08-07 19:51:30",
    "EPOCH_MICROSECONDS": "624192",
    "MEAN_MOTION": "14.0016989",
    "ECCENTRICITY": "0.0000359",
    "INCLINATION": "77.6118",
    "RA_OF_ASC_NODE": "5.0829",
    "ARG_OF_PERICENTER": "120.018",
    "MEAN_ANOMALY": "240.1007",
    "EPHEMERIS_TYPE": "0",
    "ELEMENT_SET_NO": "999",
    "REV_AT_EPOCH": "3299",
    "BSTAR": "0.000033186",
    "MEAN_MOTION_DOT": "0.00000046",
    "MEAN_MOTION_DDOT": "0",
    "FILE": "3974427",
    "TLE_LINE0": "0 SWOT",
    "TLE_LINE1": "1 54754U 22173A   23219.82743778  .00000046  00000-0  33186-4 0  9998",
    "TLE_LINE2": "2 54754  77.6118   5.0829 0000359 120.0180 240.1007 14.00169890 32995",
    "OBJECT_ID": "2022-173A",
    "OBJECT_NUMBER": "54754",
    "SEMIMAJOR_AXIS": "7271.344",
    "PERIOD": "102.845",
    "APOGEE": "893.470",
    "PERIGEE": "892.948",
    "DECAYED": "0"
  },
  {
    "COMMENT": "GENERATED VIA SPACETRACK.ORG API",
    "ORIGINATOR": "18 SPCS",
    "NORAD_CAT_ID": "54754",
    "OBJECT_NAME": "SWOT",
    "OBJECT_TYPE": "PAYLOAD",
    "CLASSIFICATION_TYPE": "U",
    "INTLDES": "22173A",
    "EPOCH": "2023-08-09 01:00:42",
    "EPOCH_MICROSECONDS": "658560",
    "MEAN_MOTION": "14.00170095",
    "ECCENTRICITY": "0.0000357",
    "INCLINATION": "77.612",
    "RA_OF_ASC_NODE": "3.4432",
    "ARG_OF_PERICENTER": "117.0119",
    "MEAN_ANOMALY": "243.1069",
    "EPHEMERIS_TYPE": "0",
    "ELEMENT_SET_NO": "999",
    "REV_AT_EPOCH": "3316",
    "BSTAR": "0.000028076",
    "MEAN_MOTION_DOT": "0.00000039",
    "MEAN_MOTION_DDOT": "0",
    "FILE": "3975600",
    "TLE_LINE0": "0 SWOT",
    "TLE_LINE1": "1 54754U 22173A   23221.04216040  .00000039  00000-0  28076-4 0  9996",
    "TLE_LINE2": "2 54754  77.6120   3.4432 0000357 117.0119 243.1069 14.00170095 33166",
    "OBJECT_ID": "2022-173A",
    "OBJECT_NUMBER": "54754",
    "SEMIMAJOR_AXIS": "7271.343",
    "PERIOD": "102.845",
    "APOGEE": "893.468",
    "PERIGEE": "892.949",
    "DECAYED": "0"
  },
  {
    "COMMENT": "GENERATED VIA SPACETRACK.ORG API",
    "ORIGINATOR": "18 SPCS",
    "NORAD_CAT_ID": "54754",
    "OBJECT_NAME": "SWOT",
    "OBJECT_TYPE": "PAYLOAD",
    "CLASSIFICATION_TYPE": "U",
    "INTLDES": "22173A",
    "EPOCH": "2023-08-10 02:44:07",
    "EPOCH_MICROSECONDS": "403712",
    "MEAN_MOTION": "14.00170183",
    "ECCENTRICITY": "0.0000363",
    "INCLINATION": "77.6122",
    "RA_OF_ASC_NODE": "1.9964",
    "ARG_OF_PERICENTER": "114.8291",
    "MEAN_ANOMALY": "245.2899",
    "EPHEMERIS_TYPE": "0",
    "ELEMENT_SET_NO": "999",
    "REV_AT_EPOCH": "3331",
    "BSTAR": "0.000028828",
    "MEAN_MOTION_DOT": "0.0000004",
    "MEAN_MOTION_DDOT": "0",
    "FILE": "3976523",
    "TLE_LINE0": "0 SWOT",
    "TLE_LINE1": "1 54754U 22173A   23222.11397458  .00000040  00000-0  28828-4 0  9995",
    "TLE_LINE2": "2 54754  77.6122   1.9964 0000363 114.8291 245.2899 14.00170183 33313",
    "OBJECT_ID": "2022-173A",
    "OBJECT_NUMBER": "54754",
    "SEMIMAJOR_AXIS": "7271.343",
    "PERIOD": "102.845",
    "APOGEE": "893.472",
    "PERIGEE": "892.944",
    "DECAYED": "0"
  },
  {
    "COMMENT": "GENERATED VIA SPACETRACK.ORG API",
    "ORIGINATOR": "18 SPCS",
    "NORAD_CAT_ID": "54754",
    "OBJECT_NAME": "SWOT",
    "OBJECT_TYPE": "PAYLOAD",
    "CLASSIFICATION_TYPE": "U",
    "INTLDES": "22173A",
    "EPOCH": "2023-08-11 02:44:38",
    "EPOCH_MICROSECONDS": "495616",
    "MEAN_MOTION": "14.00170298",
    "ECCENTRICITY": "0.0000368",
    "INCLINATION": "77.6123",
    "RA_OF_ASC_NODE": "0.6461",
    "ARG_OF_PERICENTER": "113.9311",
    "MEAN_ANOMALY": "246.188",
    "EPHEMERIS_TYPE": "0",
    "ELEMENT_SET_NO": "999",
    "REV_AT_EPOCH": "3345",
    "BSTAR": "0.000041423",
    "MEAN_MOTION_DOT": "0.00000059",
    "MEAN_MOTION_DDOT": "0",
    "FILE": "3977425",
    "TLE_LINE0": "0 SWOT",
    "TLE_LINE1": "1 54754U 22173A   23223.11433444  .00000059  00000-0  41423-4 0  9998",
    "TLE_LINE2": "2 54754  77.6123   0.6461 0000368 113.9311 246.1880 14.00170298 33452",
    "OBJECT_ID": "2022-173A",
    "OBJECT_NUMBER": "54754",
    "SEMIMAJOR_AXIS": "7271.342",
    "PERIOD": "102.845",
    "APOGEE": "893.475",
    "PERIGEE": "892.940",
    "DECAYED": "0"
  },
  {
    "COMMENT": "GENERATED VIA SPACETRACK.ORG API",
    "ORIGINATOR": "18 SPCS",
    "NORAD_CAT_ID": "54754",
    "OBJECT_NAME": "SWOT",
    "OBJECT_TYPE": "PAYLOAD",
    "CLASSIFICATION_TYPE": "U",
    "INTLDES": "22173A",
    "EPOCH": "2023-08-12 02:45:09",
    "EPOCH_MICROSECONDS": "579744",
    "MEAN_MOTION": "14.00170447",
    "ECCENTRICITY": "0.0000377",
    "INCLINATION": "77.6124",
    "RA_OF_ASC_NODE": "359.2959",
    "ARG_OF_PERICENTER": "113.27",
    "MEAN_ANOMALY": "246.8491",
    "EPHEMERIS_TYPE": "0",
    "ELEMENT_SET_NO": "999",
    "REV_AT_EPOCH": "3359",
    "BSTAR": "0.000061284",
    "MEAN_MOTION_DOT": "0.00000088",
    "MEAN_MOTION_DDOT": "0",
    "FILE": "3978249",
    "TLE_LINE0": "0 SWOT",
    "TLE_LINE1": "1 54754U 22173A   23224.11469421  .00000088  00000-0  61284-4 0  9992",
    "TLE_LINE2": "2 54754  77.6124 359.2959 0000377 113.2700 246.8491 14.00170447 33599",
    "OBJECT_ID": "2022-173A",
    "OBJECT_NUMBER": "54754",
    "SEMIMAJOR_AXIS": "7271.342",
    "PERIOD": "102.845",
    "APOGEE": "893.481",
    "PERIGEE": "892.933",
    "DECAYED": "0"
  }
]